[{"OBJECT_NAME":"GLOBAL-18","OBJECT_ID":"2022-034B","EPOCH":"2026-03-09T23:26:05.160768","MEAN_MOTION":15.42149859,"ECCENTRICITY":0.00026358,"INCLINATION":52.9845,"RA_OF_ASC_NODE":9.3468,"ARG_OF_PERICENTER":330.2135,"MEAN_ANOMALY":29.8718,"EPHEMERIS_TYPE":0,"CLASSIFICATION_TYPE":"U","NORAD_CAT_ID":52196,"ELEMENT_SET_NO":999,"REV_AT_EPOCH":22163,"BSTAR":0.00062119712,"MEAN_MOTION_DOT":0.0002671,"MEAN_MOTION_DDOT":0},{"OBJECT_NAME":"STARLINK-4446","OBJECT_ID":"2022-099AS","EPOCH":"2026-03-10T00:00:02.999808","MEAN_MOTION":15.39988094,"ECCENTRICITY":0.00015463,"INCLINATION":97.6064,"RA_OF_ASC_NODE":192.0252,"ARG_OF_PERICENTER":73.6068,"MEAN_ANOMALY":208.021,"EPHEMERIS_TYPE":0,"CLASSIFICATION_TYPE":"U","NORAD_CAT_ID":53505,"ELEMENT_SET_NO":999,"REV_AT_EPOCH":561,"BSTAR":0.0069528789,"MEAN_MOTION_DOT":0.00287489,"MEAN_MOTION_DDOT":0}]
